ZK-1A R/B               
1 67002U 25292K   25365.80273033  .00193956  12489-4  84948-3 0  9999
2 67002  97.7194  80.1895 0198026 295.3771  62.7099 15.60987680  3360
STARLINK-35660          
1 67003U 25293A   25365.91668981 -.01596648  00000+0 -27512-1 0  9994
2 67003  69.9998 268.9702 0003806 269.6796 157.1161 15.53769934  3247
STARLINK-35913          
1 67004U 25293B   25365.91668981 -.01569750  00000+0 -27026-1 0  9999
2 67004  69.9996 268.9680 0003700 269.9628 158.7636 15.53744828  3240
STARLINK-36148          
1 67005U 25293C   25365.91668981 -.01530197  00000+0 -26770-1 0  9998
2 67005  69.9995 268.9656 0004022 270.7527 159.9017 15.53730377  3249
STARLINK-36156          
1 67006U 25293D   25365.91668981 -.01527570  00000+0 -26782-1 0  9993
2 67006  69.9998 268.9614 0003204 268.6707 165.8822 15.53675243  3244
STARLINK-36123          
1 67007U 25293E   25365.91668981 -.01536473  00000+0 -26946-1 0  9998
2 67007  69.9996 268.9638 0003288 268.8579 163.7594 15.53686760  3249
STARLINK-36163          
1 67008U 25293F   25365.91668981 -.01408917  00000+0 -24549-1 0  9997
2 67008  69.9997 268.9585 0003162 269.4969 167.0251 15.53584213  3240
STARLINK-36118          
1 67009U 25293G   25365.91668981 -.01316442  00000+0 -22822-1 0  9991
2 67009  69.9998 268.9563 0003558 269.2649 169.2075 15.53518857  3182
STARLINK-36189          
1 67010U 25293H   25365.91668981 -.01295090  00000+0 -22449-1 0  9993
2 67010  70.0001 268.9516 0003464 272.5710 169.7720 15.53476870  3249
STARLINK-36167          
1 67011U 25293J   25365.91668981 -.01312009  00000+0 -22744-1 0  9992
2 67011  69.9998 268.9541 0003306 268.8635 171.5317 15.53512524  3182
STARLINK-36175          
1 67012U 25293K   25365.91668981 -.01250802  00000+0 -21624-1 0  9991
2 67012  69.9998 268.9488 0003523 268.9675 175.3026 15.53454105  3188
STARLINK-35856          
1 67013U 25293L   25365.91668981 -.01177033  00000+0 -20601-1 0  9990
2 67013  69.9999 268.9477 0003705 267.0076 179.2078 15.53402622  3182
