CCSDS_OMM_VERS = 2.0
CREATION_DATE  = 
ORIGINATOR     = 

OBJECT_NAME    = ZK-1A R/B
OBJECT_ID      = 2025-292K
CENTER_NAME    = EARTH
REF_FRAME      = TEME
TIME_SYSTEM    = UTC
MEAN_ELEMENT_THEORY = SGP/SGP4

EPOCH          = 2025-12-31T19:15:55.900512
MEAN_MOTION    = 15.60987680
ECCENTRICITY   = .01980265
INCLINATION    = 97.7194
RA_OF_ASC_NODE = 80.1895
ARG_OF_PERICENTER = 295.3771
MEAN_ANOMALY   = 62.7099

EPHEMERIS_TYPE = 0
CLASSIFICATION_TYPE = U
NORAD_CAT_ID   = 67002
ELEMENT_SET_NO = 999
REV_AT_EPOCH   = 336
BSTAR          = .84947787E-3
MEAN_MOTION_DOT = .193956E-2
MEAN_MOTION_DDOT = .12488973E-4

CCSDS_OMM_VERS = 2.0
CREATION_DATE  = 
ORIGINATOR     = 

OBJECT_NAME    = STARLINK-35660
OBJECT_ID      = 2025-293A
CENTER_NAME    = EARTH
REF_FRAME      = TEME
TIME_SYSTEM    = UTC
MEAN_ELEMENT_THEORY = SGP/SGP4

EPOCH          = 2025-12-31T22:00:01.999584
MEAN_MOTION    = 15.53769934
ECCENTRICITY   = .00038067
INCLINATION    = 69.9998
RA_OF_ASC_NODE = 268.9702
ARG_OF_PERICENTER = 269.6796
MEAN_ANOMALY   = 157.1161

EPHEMERIS_TYPE = 0
CLASSIFICATION_TYPE = U
NORAD_CAT_ID   = 67003
ELEMENT_SET_NO = 999
REV_AT_EPOCH   = 324
BSTAR          = -.2751184E-1
MEAN_MOTION_DOT = -.1596648E-1
MEAN_MOTION_DDOT = 0

CCSDS_OMM_VERS = 2.0
CREATION_DATE  = 
ORIGINATOR     = 

OBJECT_NAME    = STARLINK-35913
OBJECT_ID      = 2025-293B
CENTER_NAME    = EARTH
REF_FRAME      = TEME
TIME_SYSTEM    = UTC
MEAN_ELEMENT_THEORY = SGP/SGP4

EPOCH          = 2025-12-31T22:00:01.999584
MEAN_MOTION    = 15.53744828
ECCENTRICITY   = .00037002
INCLINATION    = 69.9996
RA_OF_ASC_NODE = 268.9680
ARG_OF_PERICENTER = 269.9628
MEAN_ANOMALY   = 158.7636

EPHEMERIS_TYPE = 0
CLASSIFICATION_TYPE = U
NORAD_CAT_ID   = 67004
ELEMENT_SET_NO = 999
REV_AT_EPOCH   = 324
BSTAR          = -.27025644E-1
MEAN_MOTION_DOT = -.156975E-1
MEAN_MOTION_DDOT = 0

CCSDS_OMM_VERS = 2.0
CREATION_DATE  = 
ORIGINATOR     = 

OBJECT_NAME    = STARLINK-36148
OBJECT_ID      = 2025-293C
CENTER_NAME    = EARTH
REF_FRAME      = TEME
TIME_SYSTEM    = UTC
MEAN_ELEMENT_THEORY = SGP/SGP4

EPOCH          = 2025-12-31T22:00:01.999584
MEAN_MOTION    = 15.53730377
ECCENTRICITY   = .00040225
INCLINATION    = 69.9995
RA_OF_ASC_NODE = 268.9656
ARG_OF_PERICENTER = 270.7527
MEAN_ANOMALY   = 159.9017

EPHEMERIS_TYPE = 0
CLASSIFICATION_TYPE = U
NORAD_CAT_ID   = 67005
ELEMENT_SET_NO = 999
REV_AT_EPOCH   = 324
BSTAR          = -.26770073E-1
MEAN_MOTION_DOT = -.1530197E-1
MEAN_MOTION_DDOT = 0

CCSDS_OMM_VERS = 2.0
CREATION_DATE  = 
ORIGINATOR     = 

OBJECT_NAME    = STARLINK-36156
OBJECT_ID      = 2025-293D
CENTER_NAME    = EARTH
REF_FRAME      = TEME
TIME_SYSTEM    = UTC
MEAN_ELEMENT_THEORY = SGP/SGP4

EPOCH          = 2025-12-31T22:00:01.999584
MEAN_MOTION    = 15.53675243
ECCENTRICITY   = .00032049
INCLINATION    = 69.9998
RA_OF_ASC_NODE = 268.9614
ARG_OF_PERICENTER = 268.6707
MEAN_ANOMALY   = 165.8822

EPHEMERIS_TYPE = 0
CLASSIFICATION_TYPE = U
NORAD_CAT_ID   = 67006
ELEMENT_SET_NO = 999
REV_AT_EPOCH   = 324
BSTAR          = -.26782276E-1
MEAN_MOTION_DOT = -.152757E-1
MEAN_MOTION_DDOT = 0

CCSDS_OMM_VERS = 2.0
CREATION_DATE  = 
ORIGINATOR     = 

OBJECT_NAME    = STARLINK-36123
OBJECT_ID      = 2025-293E
CENTER_NAME    = EARTH
REF_FRAME      = TEME
TIME_SYSTEM    = UTC
MEAN_ELEMENT_THEORY = SGP/SGP4

EPOCH          = 2025-12-31T22:00:01.999584
MEAN_MOTION    = 15.53686760
ECCENTRICITY   = .00032883
INCLINATION    = 69.9996
RA_OF_ASC_NODE = 268.9638
ARG_OF_PERICENTER = 268.8579
MEAN_ANOMALY   = 163.7594

EPHEMERIS_TYPE = 0
CLASSIFICATION_TYPE = U
NORAD_CAT_ID   = 67007
ELEMENT_SET_NO = 999
REV_AT_EPOCH   = 324
BSTAR          = -.26945516E-1
MEAN_MOTION_DOT = -.1536473E-1
MEAN_MOTION_DDOT = 0

CCSDS_OMM_VERS = 2.0
CREATION_DATE  = 
ORIGINATOR     = 

OBJECT_NAME    = STARLINK-36163
OBJECT_ID      = 2025-293F
CENTER_NAME    = EARTH
REF_FRAME      = TEME
TIME_SYSTEM    = UTC
MEAN_ELEMENT_THEORY = SGP/SGP4

EPOCH          = 2025-12-31T22:00:01.999584
MEAN_MOTION    = 15.53584213
ECCENTRICITY   = .00031626
INCLINATION    = 69.9997
RA_OF_ASC_NODE = 268.9585
ARG_OF_PERICENTER = 269.4969
MEAN_ANOMALY   = 167.0251

EPHEMERIS_TYPE = 0
CLASSIFICATION_TYPE = U
NORAD_CAT_ID   = 67008
ELEMENT_SET_NO = 999
REV_AT_EPOCH   = 324
BSTAR          = -.24549408E-1
MEAN_MOTION_DOT = -.1408917E-1
MEAN_MOTION_DDOT = 0

CCSDS_OMM_VERS = 2.0
CREATION_DATE  = 
ORIGINATOR     = 

OBJECT_NAME    = STARLINK-36118
OBJECT_ID      = 2025-293G
CENTER_NAME    = EARTH
REF_FRAME      = TEME
TIME_SYSTEM    = UTC
MEAN_ELEMENT_THEORY = SGP/SGP4

EPOCH          = 2025-12-31T22:00:01.999584
MEAN_MOTION    = 15.53518857
ECCENTRICITY   = .00035587
INCLINATION    = 69.9998
RA_OF_ASC_NODE = 268.9563
ARG_OF_PERICENTER = 269.2649
MEAN_ANOMALY   = 169.2075

EPHEMERIS_TYPE = 0
CLASSIFICATION_TYPE = U
NORAD_CAT_ID   = 67009
ELEMENT_SET_NO = 999
REV_AT_EPOCH   = 318
BSTAR          = -.22821598E-1
MEAN_MOTION_DOT = -.1316442E-1
MEAN_MOTION_DDOT = 0

CCSDS_OMM_VERS = 2.0
CREATION_DATE  = 
ORIGINATOR     = 

OBJECT_NAME    = STARLINK-36189
OBJECT_ID      = 2025-293H
CENTER_NAME    = EARTH
REF_FRAME      = TEME
TIME_SYSTEM    = UTC
MEAN_ELEMENT_THEORY = SGP/SGP4

EPOCH          = 2025-12-31T22:00:01.999584
MEAN_MOTION    = 15.53476870
ECCENTRICITY   = .00034642
INCLINATION    = 70.0001
RA_OF_ASC_NODE = 268.9516
ARG_OF_PERICENTER = 272.5710
MEAN_ANOMALY   = 169.7720

EPHEMERIS_TYPE = 0
CLASSIFICATION_TYPE = U
NORAD_CAT_ID   = 67010
ELEMENT_SET_NO = 999
REV_AT_EPOCH   = 324
BSTAR          = -.22448993E-1
MEAN_MOTION_DOT = -.129509E-1
MEAN_MOTION_DDOT = 0

CCSDS_OMM_VERS = 2.0
CREATION_DATE  = 
ORIGINATOR     = 

OBJECT_NAME    = STARLINK-36167
OBJECT_ID      = 2025-293J
CENTER_NAME    = EARTH
REF_FRAME      = TEME
TIME_SYSTEM    = UTC
MEAN_ELEMENT_THEORY = SGP/SGP4

EPOCH          = 2025-12-31T22:00:01.999584
MEAN_MOTION    = 15.53512524
ECCENTRICITY   = .00033062
INCLINATION    = 69.9998
RA_OF_ASC_NODE = 268.9541
ARG_OF_PERICENTER = 268.8635
MEAN_ANOMALY   = 171.5317

EPHEMERIS_TYPE = 0
CLASSIFICATION_TYPE = U
NORAD_CAT_ID   = 67011
ELEMENT_SET_NO = 999
REV_AT_EPOCH   = 318
BSTAR          = -.22744318E-1
MEAN_MOTION_DOT = -.1312009E-1
MEAN_MOTION_DDOT = 0

CCSDS_OMM_VERS = 2.0
CREATION_DATE  = 
ORIGINATOR     = 

OBJECT_NAME    = STARLINK-36175
OBJECT_ID      = 2025-293K
CENTER_NAME    = EARTH
REF_FRAME      = TEME
TIME_SYSTEM    = UTC
MEAN_ELEMENT_THEORY = SGP/SGP4

EPOCH          = 2025-12-31T22:00:01.999584
MEAN_MOTION    = 15.53454105
ECCENTRICITY   = .00035231
INCLINATION    = 69.9998
RA_OF_ASC_NODE = 268.9488
ARG_OF_PERICENTER = 268.9675
MEAN_ANOMALY   = 175.3026

EPHEMERIS_TYPE = 0
CLASSIFICATION_TYPE = U
NORAD_CAT_ID   = 67012
ELEMENT_SET_NO = 999
REV_AT_EPOCH   = 318
BSTAR          = -.21623699E-1
MEAN_MOTION_DOT = -.1250802E-1
MEAN_MOTION_DDOT = 0

CCSDS_OMM_VERS = 2.0
CREATION_DATE  = 
ORIGINATOR     = 

OBJECT_NAME    = STARLINK-35856
OBJECT_ID      = 2025-293L
CENTER_NAME    = EARTH
REF_FRAME      = TEME
TIME_SYSTEM    = UTC
MEAN_ELEMENT_THEORY = SGP/SGP4

EPOCH          = 2025-12-31T22:00:01.999584
MEAN_MOTION    = 15.53402622
ECCENTRICITY   = .00037058
INCLINATION    = 69.9999
RA_OF_ASC_NODE = 268.9477
ARG_OF_PERICENTER = 267.0076
MEAN_ANOMALY   = 179.2078

EPHEMERIS_TYPE = 0
CLASSIFICATION_TYPE = U
NORAD_CAT_ID   = 67013
ELEMENT_SET_NO = 999
REV_AT_EPOCH   = 318
BSTAR          = -.20601116E-1
MEAN_MOTION_DOT = -.1177033E-1
MEAN_MOTION_DDOT = 0

